ATLAS CENTAUR 2         
1 00694U 63047A   25363.97650485  .00002821  00000+0  33258-3 0  9998
2 00694  30.3533 225.1714 0548623 186.0270 173.3506 14.11836125121766
THOR AGENA D R/B        
1 00733U 64002A   25364.02688367  .00000381  00000+0  15307-3 0  9995
2 00733  99.1219   8.5804 0033868 100.9978 259.5018 14.33970643228319
SL-3 R/B                
1 00877U 64053B   25363.88724058  .00000437  00000+0  10930-3 0  9990
2 00877  65.0754 175.8684 0075347 314.6711  44.8264 14.61289691256591
SL-8 R/B                
1 02802U 67045B   25364.02513824  .00000709  00000+0  20366-3 0  9994
2 02802  74.0115 118.1866 0063423 143.1884 217.3654 14.45556803 78958
SL-8 R/B                
1 03230U 68040B   25363.75149897  .00006270  00000+0  46945-3 0  9990
2 03230  74.0323  96.5369 0026317 295.3785  64.4679 15.02659104 79505
OAO 2                   
1 03597U 68110A   25364.10446039  .00000431  00000+0  12151-3 0  9997
2 03597  34.9943 293.7211 0005486 352.3412   7.7194 14.47255891  9010
ISIS 1                  
1 03669U 69009A   25364.14335177  .00000504  00000+0  36162-3 0  9998
2 03669  88.4499 162.8929 1707238 229.5280 114.4221 11.30364725340678
SERT 2                  
1 04327U 70009A   25364.10266278  .00000032  00000+0  10018-3 0  9991
2 04327  99.2674 306.0360 0004826 352.9970  23.8994 13.58720350770449
SL-3 R/B                
1 05118U 71028B   25364.11479243  .00048905  00000+0  70484-3 0  9995
2 05118  81.2373 137.5951 0018810 178.4347 181.6965 15.55592065977837
ASTEX 1                 
1 05560U 71089A   25364.08768105  .00000911  00000+0  23216-3 0  9993
2 05560  92.7152 129.2332 0014198 326.7283  33.3029 14.50665759852216
SL-8 R/B                
1 05730U 71119B   25364.17325973  .00014368  00000+0  74473-3 0  9990
2 05730  73.8889 305.4929 0557888 286.2576  67.7916 14.36170635645501
OAO 3 (COPERNICUS)      
1 06153U 72065A   25363.97548545  .00000709  00000+0  15000-3 0  9995
2 06153  35.0072 334.4832 0007088 306.4835  91.3691 14.59923816836007
