CCSDS_OMM_VERS = 2.0
CREATION_DATE  = 
ORIGINATOR     = 

OBJECT_NAME    = ATLAS CENTAUR 2
OBJECT_ID      = 1963-047A
CENTER_NAME    = EARTH
REF_FRAME      = TEME
TIME_SYSTEM    = UTC
MEAN_ELEMENT_THEORY = SGP/SGP4

EPOCH          = 2025-12-29T23:26:10.019040
MEAN_MOTION    = 14.11836125
ECCENTRICITY   = .0548623
INCLINATION    = 30.3533
RA_OF_ASC_NODE = 225.1714
ARG_OF_PERICENTER = 186.0270
MEAN_ANOMALY   = 173.3506

EPHEMERIS_TYPE = 0
CLASSIFICATION_TYPE = U
NORAD_CAT_ID   = 694
ELEMENT_SET_NO = 999
REV_AT_EPOCH   = 12176
BSTAR          = .33258E-3
MEAN_MOTION_DOT = .2821E-4
MEAN_MOTION_DDOT = 0

CCSDS_OMM_VERS = 2.0
CREATION_DATE  = 
ORIGINATOR     = 

OBJECT_NAME    = THOR AGENA D R/B
OBJECT_ID      = 1964-002A
CENTER_NAME    = EARTH
REF_FRAME      = TEME
TIME_SYSTEM    = UTC
MEAN_ELEMENT_THEORY = SGP/SGP4

EPOCH          = 2025-12-30T00:38:42.749088
MEAN_MOTION    = 14.33970643
ECCENTRICITY   = .0033868
INCLINATION    = 99.1219
RA_OF_ASC_NODE = 8.5804
ARG_OF_PERICENTER = 100.9978
MEAN_ANOMALY   = 259.5018

EPHEMERIS_TYPE = 0
CLASSIFICATION_TYPE = U
NORAD_CAT_ID   = 733
ELEMENT_SET_NO = 999
REV_AT_EPOCH   = 22831
BSTAR          = .15307E-3
MEAN_MOTION_DOT = .381E-5
MEAN_MOTION_DDOT = 0

CCSDS_OMM_VERS = 2.0
CREATION_DATE  = 
ORIGINATOR     = 

OBJECT_NAME    = SL-3 R/B
OBJECT_ID      = 1964-053B
CENTER_NAME    = EARTH
REF_FRAME      = TEME
TIME_SYSTEM    = UTC
MEAN_ELEMENT_THEORY = SGP/SGP4

EPOCH          = 2025-12-29T21:17:37.586112
MEAN_MOTION    = 14.61289691
ECCENTRICITY   = .0075347
INCLINATION    = 65.0754
RA_OF_ASC_NODE = 175.8684
ARG_OF_PERICENTER = 314.6711
MEAN_ANOMALY   = 44.8264

EPHEMERIS_TYPE = 0
CLASSIFICATION_TYPE = U
NORAD_CAT_ID   = 877
ELEMENT_SET_NO = 999
REV_AT_EPOCH   = 25659
BSTAR          = .1093E-3
MEAN_MOTION_DOT = .437E-5
MEAN_MOTION_DDOT = 0

CCSDS_OMM_VERS = 2.0
CREATION_DATE  = 
ORIGINATOR     = 

OBJECT_NAME    = SL-8 R/B
OBJECT_ID      = 1967-045B
CENTER_NAME    = EARTH
REF_FRAME      = TEME
TIME_SYSTEM    = UTC
MEAN_ELEMENT_THEORY = SGP/SGP4

EPOCH          = 2025-12-30T00:36:11.943936
MEAN_MOTION    = 14.45556803
ECCENTRICITY   = .0063423
INCLINATION    = 74.0115
RA_OF_ASC_NODE = 118.1866
ARG_OF_PERICENTER = 143.1884
MEAN_ANOMALY   = 217.3654

EPHEMERIS_TYPE = 0
CLASSIFICATION_TYPE = U
NORAD_CAT_ID   = 2802
ELEMENT_SET_NO = 999
REV_AT_EPOCH   = 7895
BSTAR          = .20366E-3
MEAN_MOTION_DOT = .709E-5
MEAN_MOTION_DDOT = 0

CCSDS_OMM_VERS = 2.0
CREATION_DATE  = 
ORIGINATOR     = 

OBJECT_NAME    = SL-8 R/B
OBJECT_ID      = 1968-040B
CENTER_NAME    = EARTH
REF_FRAME      = TEME
TIME_SYSTEM    = UTC
MEAN_ELEMENT_THEORY = SGP/SGP4

EPOCH          = 2025-12-29T18:02:09.511008
MEAN_MOTION    = 15.02659104
ECCENTRICITY   = .0026317
INCLINATION    = 74.0323
RA_OF_ASC_NODE = 96.5369
ARG_OF_PERICENTER = 295.3785
MEAN_ANOMALY   = 64.4679

EPHEMERIS_TYPE = 0
CLASSIFICATION_TYPE = U
NORAD_CAT_ID   = 3230
ELEMENT_SET_NO = 999
REV_AT_EPOCH   = 7950
BSTAR          = .46945E-3
MEAN_MOTION_DOT = .627E-4
MEAN_MOTION_DDOT = 0

CCSDS_OMM_VERS = 2.0
CREATION_DATE  = 
ORIGINATOR     = 

OBJECT_NAME    = OAO 2
OBJECT_ID      = 1968-110A
CENTER_NAME    = EARTH
REF_FRAME      = TEME
TIME_SYSTEM    = UTC
MEAN_ELEMENT_THEORY = SGP/SGP4

EPOCH          = 2025-12-30T02:30:25.377696
MEAN_MOTION    = 14.47255891
ECCENTRICITY   = .0005486
INCLINATION    = 34.9943
RA_OF_ASC_NODE = 293.7211
ARG_OF_PERICENTER = 352.3412
MEAN_ANOMALY   = 7.7194

EPHEMERIS_TYPE = 0
CLASSIFICATION_TYPE = U
NORAD_CAT_ID   = 3597
ELEMENT_SET_NO = 999
REV_AT_EPOCH   = 901
BSTAR          = .12151E-3
MEAN_MOTION_DOT = .431E-5
MEAN_MOTION_DDOT = 0

CCSDS_OMM_VERS = 2.0
CREATION_DATE  = 
ORIGINATOR     = 

OBJECT_NAME    = ISIS 1
OBJECT_ID      = 1969-009A
CENTER_NAME    = EARTH
REF_FRAME      = TEME
TIME_SYSTEM    = UTC
MEAN_ELEMENT_THEORY = SGP/SGP4

EPOCH          = 2025-12-30T03:26:25.592928
MEAN_MOTION    = 11.30364725
ECCENTRICITY   = .1707238
INCLINATION    = 88.4499
RA_OF_ASC_NODE = 162.8929
ARG_OF_PERICENTER = 229.5280
MEAN_ANOMALY   = 114.4221

EPHEMERIS_TYPE = 0
CLASSIFICATION_TYPE = U
NORAD_CAT_ID   = 3669
ELEMENT_SET_NO = 999
REV_AT_EPOCH   = 34067
BSTAR          = .36162E-3
MEAN_MOTION_DOT = .504E-5
MEAN_MOTION_DDOT = 0

CCSDS_OMM_VERS = 2.0
CREATION_DATE  = 
ORIGINATOR     = 

OBJECT_NAME    = SERT 2
OBJECT_ID      = 1970-009A
CENTER_NAME    = EARTH
REF_FRAME      = TEME
TIME_SYSTEM    = UTC
MEAN_ELEMENT_THEORY = SGP/SGP4

EPOCH          = 2025-12-30T02:27:50.064192
MEAN_MOTION    = 13.58720350
ECCENTRICITY   = .0004826
INCLINATION    = 99.2674
RA_OF_ASC_NODE = 306.0360
ARG_OF_PERICENTER = 352.9970
MEAN_ANOMALY   = 23.8994

EPHEMERIS_TYPE = 0
CLASSIFICATION_TYPE = U
NORAD_CAT_ID   = 4327
ELEMENT_SET_NO = 999
REV_AT_EPOCH   = 77044
BSTAR          = .10018E-3
MEAN_MOTION_DOT = .32E-6
MEAN_MOTION_DDOT = 0

CCSDS_OMM_VERS = 2.0
CREATION_DATE  = 
ORIGINATOR     = 

OBJECT_NAME    = SL-3 R/B
OBJECT_ID      = 1971-028B
CENTER_NAME    = EARTH
REF_FRAME      = TEME
TIME_SYSTEM    = UTC
MEAN_ELEMENT_THEORY = SGP/SGP4

EPOCH          = 2025-12-30T02:45:18.065952
MEAN_MOTION    = 15.55592065
ECCENTRICITY   = .001881
INCLINATION    = 81.2373
RA_OF_ASC_NODE = 137.5951
ARG_OF_PERICENTER = 178.4347
MEAN_ANOMALY   = 181.6965

EPHEMERIS_TYPE = 0
CLASSIFICATION_TYPE = U
NORAD_CAT_ID   = 5118
ELEMENT_SET_NO = 999
REV_AT_EPOCH   = 97783
BSTAR          = .70484E-3
MEAN_MOTION_DOT = .48905E-3
MEAN_MOTION_DDOT = 0

CCSDS_OMM_VERS = 2.0
CREATION_DATE  = 
ORIGINATOR     = 

OBJECT_NAME    = ASTEX 1
OBJECT_ID      = 1971-089A
CENTER_NAME    = EARTH
REF_FRAME      = TEME
TIME_SYSTEM    = UTC
MEAN_ELEMENT_THEORY = SGP/SGP4

EPOCH          = 2025-12-30T02:06:15.642720
MEAN_MOTION    = 14.50665759
ECCENTRICITY   = .0014198
INCLINATION    = 92.7152
RA_OF_ASC_NODE = 129.2332
ARG_OF_PERICENTER = 326.7283
MEAN_ANOMALY   = 33.3029

EPHEMERIS_TYPE = 0
CLASSIFICATION_TYPE = U
NORAD_CAT_ID   = 5560
ELEMENT_SET_NO = 999
REV_AT_EPOCH   = 85221
BSTAR          = .23216E-3
MEAN_MOTION_DOT = .911E-5
MEAN_MOTION_DDOT = 0

CCSDS_OMM_VERS = 2.0
CREATION_DATE  = 
ORIGINATOR     = 

OBJECT_NAME    = SL-8 R/B
OBJECT_ID      = 1971-119B
CENTER_NAME    = EARTH
REF_FRAME      = TEME
TIME_SYSTEM    = UTC
MEAN_ELEMENT_THEORY = SGP/SGP4

EPOCH          = 2025-12-30T04:09:29.640672
MEAN_MOTION    = 14.36170635
ECCENTRICITY   = .0557888
INCLINATION    = 73.8889
RA_OF_ASC_NODE = 305.4929
ARG_OF_PERICENTER = 286.2576
MEAN_ANOMALY   = 67.7916

EPHEMERIS_TYPE = 0
CLASSIFICATION_TYPE = U
NORAD_CAT_ID   = 5730
ELEMENT_SET_NO = 999
REV_AT_EPOCH   = 64550
BSTAR          = .74473E-3
MEAN_MOTION_DOT = .14368E-3
MEAN_MOTION_DDOT = 0

CCSDS_OMM_VERS = 2.0
CREATION_DATE  = 
ORIGINATOR     = 

OBJECT_NAME    = OAO 3 (COPERNICUS)
OBJECT_ID      = 1972-065A
CENTER_NAME    = EARTH
REF_FRAME      = TEME
TIME_SYSTEM    = UTC
MEAN_ELEMENT_THEORY = SGP/SGP4

EPOCH          = 2025-12-29T23:24:41.942880
MEAN_MOTION    = 14.59923816
ECCENTRICITY   = .0007088
INCLINATION    = 35.0072
RA_OF_ASC_NODE = 334.4832
ARG_OF_PERICENTER = 306.4835
MEAN_ANOMALY   = 91.3691

EPHEMERIS_TYPE = 0
CLASSIFICATION_TYPE = U
NORAD_CAT_ID   = 6153
ELEMENT_SET_NO = 999
REV_AT_EPOCH   = 83600
BSTAR          = .15E-3
MEAN_MOTION_DOT = .709E-5
MEAN_MOTION_DDOT = 0

